[{"OBJECT_NAME":"SUPERVIEW-1 03","OBJECT_ID":"2018-002A","EPOCH":"2026-03-09T22:14:33.880992","MEAN_MOTION":15.35916978,"ECCENTRICITY":0.00509393,"INCLINATION":97.3162,"RA_OF_ASC_NODE":154.1458,"ARG_OF_PERICENTER":177.0269,"MEAN_ANOMALY":183.1288,"EPHEMERIS_TYPE":0,"CLASSIFICATION_TYPE":"U","NORAD_CAT_ID":43099,"ELEMENT_SET_NO":999,"REV_AT_EPOCH":45311,"BSTAR":0.00062641306,"MEAN_MOTION_DOT":0.00022818,"MEAN_MOTION_DDOT":0},{"OBJECT_NAME":"STARLINK-32572","OBJECT_ID":"2024-209P","EPOCH":"2026-03-09T12:27:39.611808","MEAN_MOTION":15.30241653,"ECCENTRICITY":0.00013865,"INCLINATION":53.1599,"RA_OF_ASC_NODE":142.9969,"ARG_OF_PERICENTER":72.8799,"MEAN_ANOMALY":287.2353,"EPHEMERIS_TYPE":0,"CLASSIFICATION_TYPE":"U","NORAD_CAT_ID":61952,"ELEMENT_SET_NO":999,"REV_AT_EPOCH":7487,"BSTAR":0.0012053773,"MEAN_MOTION_DOT":0.00035558,"MEAN_MOTION_DDOT":0}]
